[{"OBJECT_ID":"2010-042R","OBJECT_NAME":"CZ-3B DEB","NORAD_CAT_ID":"40164","OBJECT_TYPE":"DEBRIS","PERIOD":"758.480","INCLINATION":"26.9730","ECCENTRICITY":"0.72961920","MEAN_MOTION":"1.89853266","TLE_LINE1":"1 40164U 10042R   21269.62641507 -.00000160  00000-0  00000-0 0  9991","TLE_LINE2":"2 40164  26.9730 301.5396 7296192  37.6082  50.2949  1.89853266 54504"},{"OBJECT_ID":"2010-042S","OBJECT_NAME":"CZ-3B DEB","NORAD_CAT_ID":"40165","OBJECT_TYPE":"DEBRIS","PERIOD":"746.758","INCLINATION":"27.4776","ECCENTRICITY":"0.73279740","MEAN_MOTION":"1.92833433","TLE_LINE1":"1 40165U 10042S   21271.86003784  .00000010  00000-0  22919-1 0  9997","TLE_LINE2":"2 40165  27.4776 215.3440 7327974 152.0877 349.4622  1.92833433 70619"},{"OBJECT_ID":"2010-042U","OBJECT_NAME":"CZ-3B DEB","NORAD_CAT_ID":"40167","OBJECT_TYPE":"DEBRIS","PERIOD":"743.770","INCLINATION":"27.2212","ECCENTRICITY":"0.71620240","MEAN_MOTION":"1.93608248","TLE_LINE1":"1 40167U 10042U   21271.51063715 -.00000239  00000-0  00000+0 0  9990","TLE_LINE2":"2 40167  27.2212 328.7209 7162024 358.8747   0.3128  1.93608248 63184"},{"OBJECT_ID":"2010-042W","OBJECT_NAME":"CZ-3B DEB","NORAD_CAT_ID":"40169","OBJECT_TYPE":"DEBRIS","PERIOD":"742.524","INCLINATION":"26.5084","ECCENTRICITY":"0.71975970","MEAN_MOTION":"1.93933184","TLE_LINE1":"1 40169U 10042W   21270.44303184 -.00000171  00000-0  00000-0 0  9996","TLE_LINE2":"2 40169  26.5084 301.5616 7197597  48.8963 357.1213  1.93933184 64342"},{"OBJECT_ID":"2010-057Y","OBJECT_NAME":"CZ-3C DEB","NORAD_CAT_ID":"40170","OBJECT_TYPE":"DEBRIS","PERIOD":"644.009","INCLINATION":"20.7039","ECCENTRICITY":"0.71429470","MEAN_MOTION":"2.23599237","TLE_LINE1":"1 40170U 10057Y   21271.50504513 -.00000474  00000-0 -80643-2 0  9991","TLE_LINE2":"2 40170  20.7039 339.8710 7142947 151.8772 357.2318  2.23599237 67162"},{"OBJECT_ID":"2010-057Z","OBJECT_NAME":"CZ-3C DEB","NORAD_CAT_ID":"40171","OBJECT_TYPE":"DEBRIS","PERIOD":"279.042","INCLINATION":"21.9604","ECCENTRICITY":"0.52993140","MEAN_MOTION":"5.16050880","TLE_LINE1":"1 40171U 10057Z   21271.25625589  .00115052  00000-0  12699-1 0  9993","TLE_LINE2":"2 40171  21.9604 288.8621 5299314 246.9152  50.0661  5.16050880105641"},{"OBJECT_ID":"2010-057AC","OBJECT_NAME":"CZ-3C DEB","NORAD_CAT_ID":"40174","OBJECT_TYPE":"DEBRIS","PERIOD":"615.687","INCLINATION":"19.8803","ECCENTRICITY":"0.70946220","MEAN_MOTION":"2.33885168","TLE_LINE1":"1 40174U 10057AC  21272.41385714  .00000177  00000-0  30442-2 0  9996","TLE_LINE2":"2 40174  19.8803 231.7086 7094622 359.9399 149.4059  2.33885168 85370"},{"OBJECT_ID":"2010-057AD","OBJECT_NAME":"CZ-3C DEB","NORAD_CAT_ID":"40175","OBJECT_TYPE":"DEBRIS","PERIOD":"599.942","INCLINATION":"19.2864","ECCENTRICITY":"0.70970200","MEAN_MOTION":"2.40023191","TLE_LINE1":"1 40175U 10057AD  21270.19290670  .00000160  00000-0  12000-2 0  9998","TLE_LINE2":"2 40175  19.2864 143.6228 7097020 174.8097 201.4126  2.40023191 68592"},{"OBJECT_ID":"2010-057AE","OBJECT_NAME":"CZ-3C DEB","NORAD_CAT_ID":"40176","OBJECT_TYPE":"DEBRIS","PERIOD":"692.829","INCLINATION":"20.1860","ECCENTRICITY":"0.71867950","MEAN_MOTION":"2.07843610","TLE_LINE1":"1 40176U 10057AE  21267.33164082 -.00000024  00000-0 -52323-2 0  9991","TLE_LINE2":"2 40176  20.1860 145.1077 7186795 213.6564 352.7847  2.07843610980961"},{"OBJECT_ID":"2010-057AF","OBJECT_NAME":"CZ-3C DEB","NORAD_CAT_ID":"40177","OBJECT_TYPE":"DEBRIS","PERIOD":"655.423","INCLINATION":"17.7498","ECCENTRICITY":"0.72205240","MEAN_MOTION":"2.19705302","TLE_LINE1":"1 40177U 10057AF  21264.96980840  .00000417  00000-0  75283-2 0  9990","TLE_LINE2":"2 40177  17.7498 327.2732 7220524 252.2697  22.5421  2.19705302 68232"},{"OBJECT_ID":"2011-077C","OBJECT_NAME":"CZ-3B DEB","NORAD_CAT_ID":"40179","OBJECT_TYPE":"DEBRIS","PERIOD":"750.914","INCLINATION":"26.2270","ECCENTRICITY":"0.74144530","MEAN_MOTION":"1.91766272","TLE_LINE1":"1 40179U 11077C   21271.31842273 -.00000069  00000-0 -21472-2 0  9995","TLE_LINE2":"2 40179  26.2270  55.4557 7414453  63.4770 352.4493  1.91766272 55021"},{"OBJECT_ID":"2011-077D","OBJECT_NAME":"CZ-3B DEB","NORAD_CAT_ID":"40180","OBJECT_TYPE":"DEBRIS","PERIOD":"744.105","INCLINATION":"24.3802","ECCENTRICITY":"0.75067960","MEAN_MOTION":"1.93521094","TLE_LINE1":"1 40180U 11077D   21269.80654955  .00003044  00000-0  10530-1 0  9992","TLE_LINE2":"2 40180  24.3802 346.4987 7506796 222.4088  45.2956  1.93521094 55174"},{"OBJECT_ID":"2011-077E","OBJECT_NAME":"CZ-3B DEB","NORAD_CAT_ID":"40181","OBJECT_TYPE":"DEBRIS","PERIOD":"760.238","INCLINATION":"22.8103","ECCENTRICITY":"0.75500340","MEAN_MOTION":"1.89414356","TLE_LINE1":"1 40181U 11077E   21258.39122746  .00000783  00000-0  20787-2 0  9996","TLE_LINE2":"2 40181  22.8103 357.0600 7550034 246.0049  22.5244  1.89414356  7942"},{"OBJECT_ID":"2011-077F","OBJECT_NAME":"CZ-3B DEB","NORAD_CAT_ID":"40182","OBJECT_TYPE":"DEBRIS","PERIOD":"779.968","INCLINATION":"23.2036","ECCENTRICITY":"0.75608270","MEAN_MOTION":"1.84622917","TLE_LINE1":"1 40182U 11077F   21270.53167626 -.00000035  00000-0  17406-2 0  9998","TLE_LINE2":"2 40182  23.2036  37.9013 7560827 159.1685 267.2066  1.84622917 52855"},{"OBJECT_ID":"2011-077G","OBJECT_NAME":"CZ-3B DEB","NORAD_CAT_ID":"40183","OBJECT_TYPE":"DEBRIS","PERIOD":"791.370","INCLINATION":"21.8825","ECCENTRICITY":"0.75837730","MEAN_MOTION":"1.81962916","TLE_LINE1":"1 40183U 11077G   21271.96357504  .00000064  00000-0  21413-2 0  9997","TLE_LINE2":"2 40183  21.8825  49.9439 7583773 163.4288 252.8107  1.81962916 55204"},{"OBJECT_ID":"2011-077H","OBJECT_NAME":"CZ-3B DEB","NORAD_CAT_ID":"40184","OBJECT_TYPE":"DEBRIS","PERIOD":"771.034","INCLINATION":"22.7628","ECCENTRICITY":"0.75751980","MEAN_MOTION":"1.86762091","TLE_LINE1":"1 40184U 11077H   21271.25310896  .00000753  00000-0  22638-2 0  9998","TLE_LINE2":"2 40184  22.7628 359.9377 7575198 241.7579  24.7605  1.86762091 47270"},{"OBJECT_ID":"2011-077J","OBJECT_NAME":"CZ-3B DEB","NORAD_CAT_ID":"40185","OBJECT_TYPE":"DEBRIS","PERIOD":"752.051","INCLINATION":"25.8862","ECCENTRICITY":"0.74830050","MEAN_MOTION":"1.91476496","TLE_LINE1":"1 40185U 11077J   21272.18577875 -.00000418  00000-0 -12843-2 0  9991","TLE_LINE2":"2 40185  25.8862  18.7384 7483005 134.2297 318.9332  1.91476496 58354"},{"OBJECT_ID":"2011-077K","OBJECT_NAME":"CZ-3B DEB","NORAD_CAT_ID":"40186","OBJECT_TYPE":"DEBRIS","PERIOD":"763.158","INCLINATION":"25.1476","ECCENTRICITY":"0.73139270","MEAN_MOTION":"1.88689544","TLE_LINE1":"1 40186U 11077K   21266.10772920 -.00000101  00000-0  00000-0 0  9993","TLE_LINE2":"2 40186  25.1476 159.4606 7313927 244.0151 339.1942  1.88689544 66484"},{"OBJECT_ID":"2011-077L","OBJECT_NAME":"CZ-3B DEB","NORAD_CAT_ID":"40187","OBJECT_TYPE":"DEBRIS","PERIOD":"754.376","INCLINATION":"26.0916","ECCENTRICITY":"0.74003880","MEAN_MOTION":"1.90886207","TLE_LINE1":"1 40187U 11077L   21270.76628067 -.00000077  00000-0 -63116-2 0  9995","TLE_LINE2":"2 40187  26.0916  93.7031 7400388 348.4317   1.1368  1.90886207 61680"},{"OBJECT_ID":"2011-077M","OBJECT_NAME":"CZ-3B DEB","NORAD_CAT_ID":"40188","OBJECT_TYPE":"DEBRIS","PERIOD":"753.335","INCLINATION":"26.8210","ECCENTRICITY":"0.74140440","MEAN_MOTION":"1.91150133","TLE_LINE1":"1 40188U 11077M   21271.53274892 -.00000304  00000-0 -12343-1 0  9993","TLE_LINE2":"2 40188  26.8210  81.2995 7414044 357.8551   0.1533  1.91150133 61850"},{"OBJECT_ID":"2011-077N","OBJECT_NAME":"CZ-3B DEB","NORAD_CAT_ID":"40189","OBJECT_TYPE":"DEBRIS","PERIOD":"756.542","INCLINATION":"25.9663","ECCENTRICITY":"0.73988620","MEAN_MOTION":"1.90339817","TLE_LINE1":"1 40189U 11077N   21271.47613159 -.00000150  00000-0 -34332-2 0  9992","TLE_LINE2":"2 40189  25.9663 109.1687 7398862 317.1086   4.6376  1.90339817 61516"},{"OBJECT_ID":"2011-077Q","OBJECT_NAME":"CZ-3B DEB","NORAD_CAT_ID":"40191","OBJECT_TYPE":"DEBRIS","PERIOD":"743.062","INCLINATION":"26.9521","ECCENTRICITY":"0.74418190","MEAN_MOTION":"1.93792655","TLE_LINE1":"1 40191U 11077Q   21267.02665285 -.00000309  00000-0 -69526-5 0  9990","TLE_LINE2":"2 40191  26.9521  25.9925 7441819  97.5525 344.1913  1.93792655 46205"},{"OBJECT_ID":"2011-077S","OBJECT_NAME":"CZ-3B DEB","NORAD_CAT_ID":"40193","OBJECT_TYPE":"DEBRIS","PERIOD":"771.230","INCLINATION":"25.5677","ECCENTRICITY":"0.74537720","MEAN_MOTION":"1.86714821","TLE_LINE1":"1 40193U 11077S   21267.91942130 -.00000009  00000-0 -33085-3 0  9993","TLE_LINE2":"2 40193  25.5677 119.7959 7453772 304.8391   6.1228  1.86714821 43908"},{"OBJECT_ID":"2012-008D","OBJECT_NAME":"CZ-3C DEB","NORAD_CAT_ID":"40194","OBJECT_TYPE":"DEBRIS","PERIOD":"675.994","INCLINATION":"21.0041","ECCENTRICITY":"0.64342260","MEAN_MOTION":"2.13019548","TLE_LINE1":"1 40194U 12008D   21270.44716391 -.00000096  00000-0  00000-0 0  9992","TLE_LINE2":"2 40194  21.0041 355.6307 6434226 112.8169 324.5443  2.13019548 61175"},{"OBJECT_ID":"2012-008E","OBJECT_NAME":"CZ-3C DEB","NORAD_CAT_ID":"40195","OBJECT_TYPE":"DEBRIS","PERIOD":"617.606","INCLINATION":"20.0818","ECCENTRICITY":"0.71702030","MEAN_MOTION":"2.33158534","TLE_LINE1":"1 40195U 12008E   21270.93061981  .00001213  00000-0  41033-2 0  9999","TLE_LINE2":"2 40195  20.0818 137.9772 7170203  69.8913 349.9383  2.33158534 66445"},{"OBJECT_ID":"2012-008F","OBJECT_NAME":"CZ-3C DEB","NORAD_CAT_ID":"40196","OBJECT_TYPE":"DEBRIS","PERIOD":"607.243","INCLINATION":"21.6154","ECCENTRICITY":"0.70719030","MEAN_MOTION":"2.37137399","TLE_LINE1":"1 40196U 12008F   21271.75432537  .00011263  00000-0  12659+0 0  9995","TLE_LINE2":"2 40196  21.6154 148.6075 7071903  11.6637 358.7147  2.37137399 78063"},{"OBJECT_ID":"2012-008G","OBJECT_NAME":"CZ-3C DEB","NORAD_CAT_ID":"40197","OBJECT_TYPE":"DEBRIS","PERIOD":"655.111","INCLINATION":"20.8137","ECCENTRICITY":"0.69697880","MEAN_MOTION":"2.19810039","TLE_LINE1":"1 40197U 12008G   21271.62747716 -.00000228  00000-0  00000+0 0  9997","TLE_LINE2":"2 40197  20.8137  50.6286 6969788 295.8391   9.9937  2.19810039 70424"}]